OBJECT_NAME,OBJECT_ID,EPOCH,MEAN_MOTION,ECCENTRICITY,INCLINATION,RA_OF_ASC_NODE,ARG_OF_PERICENTER,MEAN_ANOMALY,EPHEMERIS_TYPE,CLASSIFICATION_TYPE,NORAD_CAT_ID,ELEMENT_SET_NO,REV_AT_EPOCH,BSTAR,MEAN_MOTION_DOT,MEAN_MOTION_DDOT
ONEWEB-0534,2023-029B,2026-06-28T12:25:04.783008,13.20772610,.00019189,87.9188,272.2111,101.8715,258.2633,0,U,55797,999,16264,.98430028E-4,.53E-6,0
ONEWEB-0556,2023-029C,2026-06-28T12:34:45.105888,13.20771715,.00012478,87.9187,272.2088,86.1174,274.0102,0,U,55798,999,16264,-.55462288E-3,-.213E-5,0
ONEWEB-0562,2023-029D,2026-06-28T12:15:23.366304,13.20771332,.00019033,87.9188,272.1926,75.4318,284.7026,0,U,55799,999,16264,.19517254E-3,.92E-6,0
ONEWEB-0563,2023-029E,2026-06-28T12:08:06.665280,13.20773078,.00018616,87.9185,272.2238,105.8423,254.2916,0,U,55800,999,16263,-.96582595E-4,-.26E-6,0
ONEWEB-0564,2023-029F,2026-06-28T11:58:25.861152,13.20771871,.00019797,87.9186,272.1988,88.5440,271.5920,0,U,55801,999,16264,.12095676E-4,.18E-6,0
ONEWEB-0638,2023-029G,2026-06-28T13:58:37.988832,13.14504971,.00015089,87.8960,287.4799,87.9239,272.2063,0,U,55802,999,16089,.75624361E-4,.41E-6,0
ONEWEB-0639,2023-029H,2026-06-28T15:09:53.900640,13.19725494,.00018894,87.9178,302.6960,130.0517,230.0781,0,U,55803,999,16041,-.10518424E-3,-.29E-6,0
ONEWEB-0640,2023-029J,2026-06-28T14:12:19.748736,13.14504159,.00012333,87.8960,287.4689,99.7315,260.3954,0,U,55804,999,16091,.45664008E-3,.182E-5,0
ONEWEB-0641,2023-029K,2026-06-28T15:03:05.156928,13.19725792,.00019101,87.9187,302.6871,105.5825,254.5519,0,U,55805,999,16042,-.90618363E-4,-.23E-6,0
ONEWEB-0642,2023-029L,2026-06-28T14:56:16.192896,13.19747203,.0001767,87.9179,302.6990,126.4964,233.6332,0,U,55806,999,16041,-.11101861E-1,-.4431E-4,0
ONEWEB-0643,2023-029M,2026-06-28T13:28:56.643744,13.14504385,.00022871,87.8962,287.4623,117.5291,242.6072,0,U,55807,999,16088,-.57247465E-3,-.199E-5,0
ONEWEB-0644,2023-029N,2026-06-28T14:49:26.980032,13.19725024,.00019505,87.9179,302.7011,111.1764,248.9578,0,U,55808,999,16041,-.74415699E-4,-.17E-6,0
ONEWEB-0645,2023-029P,2026-06-28T08:04:35.074848,13.19725289,.00015762,87.9176,302.7540,110.9969,249.1332,0,U,55809,999,16037,-.5534132E-5,.11E-6,0
ONEWEB-0646,2023-029Q,2026-06-28T13:57:08.181216,13.19726916,.00019775,87.9179,302.7056,108.8874,251.2473,0,U,55810,999,16039,.85834249E-4,.47E-6,0
ONEWEB-0648,2023-029R,2026-06-28T12:43:16.743360,13.14502168,.000163,87.8972,287.4431,129.1976,230.9299,0,U,55811,999,16088,.57839997E-3,.227E-5,0
ONEWEB-0649,2023-029S,2026-06-28T14:33:31.010688,13.19726303,.00017745,87.9179,302.6983,107.0385,253.0942,0,U,55812,999,16043,.18111575E-3,.85E-6,0
ONEWEB-0650,2023-029T,2026-06-28T14:26:41.377920,13.19735482,.00016015,87.9181,302.7019,114.0948,246.0352,0,U,55813,999,16040,-.27069834E-2,-.1071E-4,0
ONEWEB-0652,2023-029U,2026-06-28T14:05:28.593600,13.14502599,.00020541,87.8969,287.4387,96.6917,263.4446,0,U,55814,999,16086,.60420956E-3,.237E-5,0
ONEWEB-0653,2023-029V,2026-06-28T13:42:37.496448,13.14504509,.00018932,87.8970,287.4399,98.8081,261.3263,0,U,55815,999,16089,-.1892668E-3,-.57E-6,0
ONEWEB-0654,2023-029W,2026-06-28T13:35:46.369824,13.14502418,.00020156,87.8969,287.4370,90.1804,269.9556,0,U,55816,999,16091,-.85560934E-3,-.304E-5,0
ONEWEB-0656,2023-029X,2026-06-28T11:48:41.816160,13.20774489,.00021521,87.9198,272.1773,88.3085,271.8295,0,U,55817,999,16264,.24770567E-3,.114E-5,0
ONEWEB-0657,2023-029Y,2026-06-28T14:19:53.216544,13.19725803,.00025935,87.9177,302.7014,95.3955,264.7473,0,U,55818,999,16041,.93830267E-4,.51E-6,0
ONEWEB-0658,2023-029Z,2026-06-28T14:13:03.794592,13.19725626,.00019847,87.9188,302.6790,112.5221,247.6122,0,U,55819,999,16042,.22054602E-3,.101E-5,0
ONEWEB-0660,2023-029AA,2026-06-28T13:03:48.442752,13.14504357,.00016403,87.8981,287.4355,105.2299,254.9012,0,U,55820,999,16089,-.21052196E-3,-.65E-6,0
ONEWEB-0661,2023-029AB,2026-06-28T13:54:04.078368,13.14504306,.00016251,87.8961,287.4717,100.4437,259.6876,0,U,55821,999,16088,.12716997E-3,.6E-6,0
ONEWEB-0662,2023-029AC,2026-06-28T12:54:41.727744,13.14501652,.00014323,87.8961,287.4858,104.9684,255.1604,0,U,55822,999,16092,.83362485E-3,.322E-5,0
ONEWEB-0663,2023-029AD,2026-06-28T12:36:02.458080,13.20869946,.00017927,87.9200,272.2423,111.6492,248.4833,0,U,55823,999,16264,.38040001E-4,.28E-6,0
ONEWEB-0664,2023-029AE,2026-06-28T13:18:25.660224,13.20771311,.0001597,87.9185,272.2163,91.3233,268.8083,0,U,55824,999,16264,-.15982202E-3,-.52E-6,0
ONEWEB-0665,2023-029AF,2026-06-28T13:49:29.758368,13.14504769,.00017127,87.8960,287.4531,108.1696,251.9621,0,U,55825,999,16090,.10546045E-3,.52E-6,0
ONEWEB-0666,2023-029AG,2026-06-28T13:08:43.173888,13.20772834,.00027252,87.9184,272.2074,96.1172,264.0271,0,U,55826,999,16265,.3546795E-4,.27E-6,0
