ONEWEB-0534             
1 55797U 23029B   26179.51741647  .00000053  00000+0  98430-4 0  9994
2 55797  87.9188 272.2111 0001918 101.8715 258.2633 13.20772610162641
ONEWEB-0556             
1 55798U 23029C   26179.52413317 -.00000213  00000+0 -55462-3 0  9993
2 55798  87.9187 272.2088 0001247  86.1174 274.0102 13.20771715162645
ONEWEB-0562             
1 55799U 23029D   26179.51068711  .00000092  00000+0  19517-3 0  9991
2 55799  87.9188 272.1926 0001903  75.4318 284.7026 13.20771332162645
ONEWEB-0563             
1 55800U 23029E   26179.50563270 -.00000026  00000+0 -96583-4 0  9991
2 55800  87.9185 272.2238 0001861 105.8423 254.2916 13.20773078162638
ONEWEB-0564             
1 55801U 23029F   26179.49891043  .00000018  00000+0  12096-4 0  9998
2 55801  87.9186 272.1988 0001979  88.5440 271.5920 13.20771871162644
ONEWEB-0638             
1 55802U 23029G   26179.58238413  .00000041  00000+0  75624-4 0  9997
2 55802  87.8960 287.4799 0001508  87.9239 272.2063 13.14504971160899
ONEWEB-0639             
1 55803U 23029H   26179.63187385 -.00000029  00000+0 -10518-3 0  9993
2 55803  87.9178 302.6960 0001889 130.0517 230.0781 13.19725494160410
ONEWEB-0640             
1 55804U 23029J   26179.59189524  .00000182  00000+0  45664-3 0  9994
2 55804  87.8960 287.4689 0001233  99.7315 260.3954 13.14504159160918
ONEWEB-0641             
1 55805U 23029K   26179.62714302 -.00000023  00000+0 -90618-4 0  9993
2 55805  87.9187 302.6871 0001910 105.5825 254.5519 13.19725792160429
ONEWEB-0642             
1 55806U 23029L   26179.62240964 -.00004431  00000+0 -11102-1 0  9997
2 55806  87.9179 302.6990 0001767 126.4964 233.6332 13.19747203160410
ONEWEB-0643             
1 55807U 23029M   26179.56176671 -.00000199  00000+0 -57247-3 0  9993
2 55807  87.8962 287.4623 0002287 117.5291 242.6072 13.14504385160884
ONEWEB-0644             
1 55808U 23029N   26179.61767338 -.00000017  00000+0 -74416-4 0  9993
2 55808  87.9179 302.7011 0001950 111.1764 248.9578 13.19725024160418
ONEWEB-0645             
1 55809U 23029P   26179.33651707  .00000011  00000+0 -55341-5 0  9995
2 55809  87.9176 302.7540 0001576 110.9969 249.1332 13.19725289160370
ONEWEB-0646             
1 55810U 23029Q   26179.58134469  .00000047  00000+0  85834-4 0  9992
2 55810  87.9179 302.7056 0001977 108.8874 251.2473 13.19726916160393
ONEWEB-0648             
1 55811U 23029R   26179.53005490  .00000227  00000+0  57840-3 0  9994
2 55811  87.8972 287.4431 0001630 129.1976 230.9299 13.14502168160885
ONEWEB-0649             
1 55812U 23029S   26179.60660892  .00000085  00000+0  18112-3 0  9997
2 55812  87.9179 302.6983 0001774 107.0385 253.0942 13.19726303160432
ONEWEB-0650             
1 55813U 23029T   26179.60186780 -.00001071  00000+0 -27070-2 0  9997
2 55813  87.9181 302.7019 0001601 114.0948 246.0352 13.19735482160401
ONEWEB-0652             
1 55814U 23029U   26179.58713650  .00000237  00000+0  60421-3 0  9996
2 55814  87.8969 287.4387 0002054  96.6917 263.4446 13.14502599160869
ONEWEB-0653             
1 55815U 23029V   26179.57126732 -.00000057  00000+0 -18927-3 0  9991
2 55815  87.8970 287.4399 0001893  98.8081 261.3263 13.14504509160891
ONEWEB-0654             
1 55816U 23029W   26179.56650891 -.00000304  00000+0 -85561-3 0  9992
2 55816  87.8969 287.4370 0002015  90.1804 269.9556 13.14502418160913
ONEWEB-0656             
1 55817U 23029X   26179.49215065  .00000114  00000+0  24771-3 0  9998
2 55817  87.9198 272.1773 0002152  88.3085 271.8295 13.20774489162649
ONEWEB-0657             
1 55818U 23029Y   26179.59714371  .00000051  00000+0  93830-4 0  9997
2 55818  87.9177 302.7014 0002593  95.3955 264.7473 13.19725803160414
ONEWEB-0658             
1 55819U 23029Z   26179.59240503  .00000101  00000+0  22055-3 0  9995
2 55819  87.9188 302.6790 0001984 112.5221 247.6122 13.19725626160423
ONEWEB-0660             
1 55820U 23029AA  26179.54431068 -.00000065  00000+0 -21052-3 0  9997
2 55820  87.8981 287.4355 0001640 105.2299 254.9012 13.14504357160896
ONEWEB-0661             
1 55821U 23029AB  26179.57921387  .00000060  00000+0  12717-3 0  9990
2 55821  87.8961 287.4717 0001625 100.4437 259.6876 13.14504306160884
ONEWEB-0662             
1 55822U 23029AC  26179.53798296  .00000322  00000+0  83362-3 0  9993
2 55822  87.8961 287.4858 0001432 104.9684 255.1604 13.14501652160926
ONEWEB-0663             
1 55823U 23029AD  26179.52502845  .00000028  00000+0  38040-4 0  9993
2 55823  87.9200 272.2423 0001792 111.6492 248.4833 13.20869946162645
ONEWEB-0664             
1 55824U 23029AE  26179.55446366 -.00000052  00000+0 -15982-3 0  9990
2 55824  87.9185 272.2163 0001597  91.3233 268.8083 13.20771311162640
ONEWEB-0665             
1 55825U 23029AF  26179.57603887  .00000052  00000+0  10546-3 0  9995
2 55825  87.8960 287.4531 0001712 108.1696 251.9621 13.14504769160909
ONEWEB-0666             
1 55826U 23029AG  26179.54772192  .00000027  00000+0  35468-4 0  9992
2 55826  87.9184 272.2074 0002725  96.1172 264.0271 13.20772834162650
